KUIPER-00025            
1 63739U 25088R   25128.16667824  .00036373  00000+0  10477-2 0  9991
2 63739  51.8682  53.4859 0006028 132.1536  47.2915 15.35384363  1999
KUIPER-00027            
1 63740U 25088S   25127.91668981 -.00015579  00000+0 -42503-3 0  9993
2 63740  51.8732  54.6300 0003342 127.9955 134.2677 15.36189321  1680
KUIPER-00028            
1 63741U 25088T   25127.91668981 -.00015765  00000+0 -42760-3 0  9996
2 63741  51.8725  54.6209 0002595 125.0068 143.3010 15.36383626  2096
KUIPER-00029            
1 63742U 25088U   25128.16667824  .00036575  00000+0  10490-2 0  9994
2 63742  51.8716  53.4736 0005583 129.5627  54.4023 15.35518503  1659
KUIPER-00030            
1 63743U 25088V   25128.16667824  .00035301  00000+0  10350-2 0  9996
2 63743  51.8680  53.5245 0008630 140.2342  20.3118 15.34823986  1948
KUIPER-00031            
1 63744U 25088W   25127.91668981 -.00015414  00000+0 -42361-3 0  9997
2 63744  51.8719  54.6491 0004504 123.3079 131.4667 15.35949162  1581
KUIPER-00032            
1 63745U 25088X   25128.16667824  .00036760  00000+0  10505-2 0  9990
2 63745  51.8708  53.4651 0005638 121.6420  67.0160 15.35629478  2662
KUIPER-00033            
1 63746U 25088Y   25127.91668981 -.00016125  00000+0 -43354-3 0  9992
2 63746  51.8733  54.5987 0001278 119.0957 158.8067 15.36677829  2105
